NORAD_CAT_ID,OBJECT_NAME,OBJECT_TYPE,EPOCH,MEAN_MOTION,ECCENTRICITY,INCLINATION,RA_OF_ASC_NODE,ARG_OF_PERICENTER,MEAN_ANOMALY,BSTAR,MEAN_MOTION_DOT,MEAN_MOTION_DDOT,TLE_LINE0,TLE_LINE1,TLE_LINE2,SEMIMAJOR_AXIS,PERIOD,APOGEE,PERIGEE,DECAYED
52865.0,STARLINK-4274,PAYLOAD,2024-03-30 22:52:04,15.08834458,0.0001469,53.2203,325.7675,101.2063,258.9094,4.3822e-05,4.09e-06,0.0,0 STARLINK-4274,1 52865U 22062AM  24090.95283286  .00000409  00000-0  43822-4 0  9992,2 52865  53.2203 325.7675 0001469 101.2063 258.9094 15.08834458 98933,6917.897,95.438,540.779,538.746,0.0
52865.0,STARLINK-4274,PAYLOAD,2024-03-31 02:02:50,15.08838953,0.000141,53.2177,325.1696,96.6125,263.5028,5.3573e-05,5.65e-06,0.0,0 STARLINK-4274,1 52865U 22062AM  24091.08530912  .00000565  00000-0  53573-4 0  9995,2 52865  53.2177 325.1696 0001410  96.6125 263.5028 15.08838953 99442,6917.884,95.438,540.724,538.773,0.0
52865.0,STARLINK-4274,PAYLOAD,2024-03-31 08:24:22,15.08847956,0.0001292,53.2187,323.9805,98.1148,261.9991,0.00014398,2.005e-05,0.0,0 STARLINK-4274,1 52865U 22062AM  24091.35026049  .00002005  00000-0  14398-3 0  9998,2 52865  53.2187 323.9805 0001292  98.1148 261.9991 15.08847956 99489,6917.856,95.437,540.615,538.827,0.0
52865.0,STARLINK-4274,PAYLOAD,2024-03-31 21:07:26,15.08856437,0.0001533,53.2206,321.6022,100.2983,259.8182,0.00025721,3.81e-05,0.0,0 STARLINK-4274,1 52865U 22062AM  24091.88017222  .00003810  00000-0  25721-3 0  9996,2 52865  53.2206 321.6022 0001533 100.2983 259.8182 15.08856437 99074,6917.83,95.437,540.756,538.635,0.0
52865.0,STARLINK-4274,PAYLOAD,2024-04-01 00:18:13,15.08862428,0.0001358,53.2185,321.0062,87.4363,272.6785,0.00038112,5.786e-05,0.0,0 STARLINK-4274,1 52865U 22062AM  24092.01265186  .00005786  00000-0  38112-3 0  9998,2 52865  53.2185 321.0062 0001358  87.4363 272.6785 15.08862428 99586,6917.812,95.436,540.616,538.737,0.0
52865.0,STARLINK-4274,PAYLOAD,2024-04-01 08:15:09,15.08843811,0.0001057,53.2187,319.5216,102.5351,257.5759,2.7557e-05,1.51e-06,0.0,0 STARLINK-4274,1 52865U 22062AM  24092.34385699  .00000151  00000-0  27557-4 0  9999,2 52865  53.2187 319.5216 0001057 102.5351 257.5759 15.08843811 99637,6917.869,95.437,540.465,539.003,0.0
52865.0,STARLINK-4274,PAYLOAD,2024-04-01 14:36:42,15.0883688,0.0001851,53.2179,318.3303,93.092,267.0284,7.8797e-05,9.66e-06,0.0,0 STARLINK-4274,1 52865U 22062AM  24092.60882521  .00000966  00000-0  78797-4 0  9990,2 52865  53.2179 318.3303 0001851  93.0920 267.0284 15.08836880 99187,6917.89,95.438,541.035,538.474,0.0
52865.0,STARLINK-4274,PAYLOAD,2024-04-01 19:22:52,15.08835366,0.0001662,53.2187,317.4386,94.2174,265.9008,5.9494e-05,6.59e-06,0.0,0 STARLINK-4274,1 52865U 22062AM  24092.80754633  .00000659  00000-0  59494-4 0  9996,2 52865  53.2187 317.4386 0001662  94.2174 265.9008 15.08835366 99708,6917.895,95.438,540.909,538.61,0.0
52865.0,STARLINK-4274,PAYLOAD,2024-04-02 08:05:56,15.08836632,0.0001375,53.2172,315.059,95.7498,264.365,-5.0627e-05,-1.093e-05,0.0,0 STARLINK-4274,1 52865U 22062AM  24093.33746399 -.00001093  00000-0 -50627-4 0  9999,2 52865  53.2172 315.0590 0001375  95.7498 264.3650 15.08836632 99296,6917.891,95.438,540.707,538.804,0.0
52865.0,STARLINK-4274,PAYLOAD,2024-04-02 20:49:02,15.08838042,0.0001294,53.217,312.6795,99.4769,260.6369,0.00019152,2.761e-05,0.0,0 STARLINK-4274,1 52865U 22062AM  24093.86738568  .00002761  00000-0  19152-3 0  9994,2 52865  53.2170 312.6795 0001294  99.4769 260.6369 15.08838042 99862,6917.886,95.438,540.647,538.856,0.0
52865.0,STARLINK-4274,PAYLOAD,2024-04-03 07:56:44,15.08837386,0.0001277,53.2165,310.5981,99.7362,260.3774,0.00029896,4.473e-05,0.0,0 STARLINK-4274,1 52865U 22062AM  24094.33106904  .00004473  00000-0  29896-3 0  9998,2 52865  53.2165 310.5981 0001277  99.7362 260.3774 15.08837386 99444,6917.888,95.438,540.637,538.87,0.0
52865.0,STARLINK-4274,PAYLOAD,2024-04-03 20:39:49,15.08840829,0.0001269,53.2166,308.2189,100.2216,259.892,0.00030867,4.628e-05,0.0,0 STARLINK-4274,1 52865U 22062AM  24094.86098990  .00004628  00000-0  30867-3 0  9993,2 52865  53.2166 308.2189 0001269 100.2216 259.8920 15.08840829 99527,6917.878,95.438,540.621,538.865,0.0
52865.0,STARLINK-4274,PAYLOAD,2024-04-04 07:47:31,15.0884066,0.0001233,53.2171,306.1376,97.3376,262.7757,0.00021628,3.156e-05,0.0,0 STARLINK-4274,1 52865U 22062AM  24095.32467043  .00003156  00000-0  21628-3 0  9994,2 52865  53.2171 306.1376 0001233  97.3376 262.7757 15.08840660100080,6917.878,95.438,540.596,538.89,0.0
52865.0,STARLINK-4274,PAYLOAD,2024-04-04 20:30:36,15.08842189,0.000116,53.2161,303.7606,87.7755,272.337,0.00021846,3.191e-05,0.0,0 STARLINK-4274,1 52865U 22062AM  24095.85459066  .00003191  00000-0  21846-3 0  9999,2 52865  53.2161 303.7606 0001160  87.7755 272.3370 15.08842189 99679,6917.874,95.437,540.541,538.936,0.0
52865.0,STARLINK-4274,PAYLOAD,2024-04-05 13:59:50,15.08845329,0.000119,53.2159,300.4888,87.9136,272.1992,0.00016884,2.401e-05,0.0,0 STARLINK-4274,1 52865U 22062AM  24096.58322738  .00002401  00000-0  16884-3 0  9994,2 52865  53.2159 300.4888 0001190  87.9136 272.1992 15.08845329 99789,6917.864,95.437,540.552,538.906,0.0
52865.0,STARLINK-4274,PAYLOAD,2024-04-05 20:21:23,15.08849036,0.0001206,53.2159,299.299,88.4181,271.6949,0.00018602,2.675e-05,0.0,0 STARLINK-4274,1 52865U 22062AM  24096.84818449  .00002675  00000-0  18602-3 0  9995,2 52865  53.2159 299.2990 0001206  88.4181 271.6949 15.08849036100319,6917.853,95.437,540.552,538.883,0.0
52865.0,STARLINK-4274,PAYLOAD,2024-04-06 12:15:14,15.08841608,0.0001264,53.2163,296.326,84.6688,275.4449,7.9202e-05,9.73e-06,0.0,0 STARLINK-4274,1 52865U 22062AM  24097.51058676  .00000973  00000-0  79202-4 0  9991,2 52865  53.2163 296.3260 0001264  84.6688 275.4449 15.08841608100411,6917.875,95.437,540.615,538.866,0.0
52865.0,STARLINK-4274,PAYLOAD,2024-04-06 13:50:37,15.08839147,0.0001277,53.2164,296.0282,86.7275,273.3863,2.0844e-05,4.4e-07,0.0,0 STARLINK-4274,1 52865U 22062AM  24097.57682811  .00000044  00000-0  20844-4 0  9998,2 52865  53.2164 296.0282 0001277  86.7275 273.3863 15.08839147 99938,6917.883,95.438,540.631,538.865,0.0
52865.0,STARLINK-4274,PAYLOAD,2024-04-06 20:12:09,15.08849412,0.0001289,53.2165,294.838,85.0481,275.0659,0.00016209,2.293e-05,0.0,0 STARLINK-4274,1 52865U 22062AM  24097.84178231  .00002293  00000-0  16209-3 0  9991,2 52865  53.2165 294.8380 0001289  85.0481 275.0659 15.08849412 99970,6917.852,95.437,540.608,538.825,0.0
52865.0,STARLINK-4274,PAYLOAD,2024-04-07 05:44:28,15.08847135,9.84e-05,53.2155,293.0523,78.8118,281.2984,0.00011439,1.534e-05,0.0,0 STARLINK-4274,1 52865U 22062AM  24098.23922207  .00001534  00000-0  11439-3 0  9992,2 52865  53.2155 293.0523 0000984  78.8118 281.2984 15.08847135100037,6917.859,95.437,540.404,539.043,0.0
52865.0,STARLINK-4274,PAYLOAD,2024-04-07 20:02:57,15.08836753,0.0001749,53.2177,290.3778,90.1066,270.0126,-5.4092e-05,-1.149e-05,0.0,0 STARLINK-4274,1 52865U 22062AM  24098.83538832 -.00001149  00000-0 -54092-4 0  9992,2 52865  53.2177 290.3778 0001749  90.1066 270.0126 15.08836753100614,6917.89,95.438,540.965,538.545,0.0
52865.0,STARLINK-4274,PAYLOAD,2024-04-08 11:56:49,15.08832907,0.0001435,53.22,287.4028,86.9339,273.1817,-0.00012861,-2.334e-05,0.0,0 STARLINK-4274,1 52865U 22062AM  24099.49779487 -.00002334  00000-0 -12861-3 0  9992,2 52865  53.2200 287.4028 0001435  86.9339 273.1817 15.08832907100713,6917.902,95.438,540.76,538.774,0.0
52865.0,STARLINK-4274,PAYLOAD,2024-04-09 05:26:03,15.08841082,0.000153,53.2199,284.1323,84.5545,275.5621,9.9326e-05,1.293e-05,0.0,0 STARLINK-4274,1 52865U 22062AM  24100.22643353  .00001293  00000-0  99326-4 0  9991,2 52865  53.2199 284.1323 0001530  84.5545 275.5621 15.08841082100826,6917.877,95.437,540.801,538.684,0.0
52865.0,STARLINK-4274,PAYLOAD,2024-04-09 21:19:55,15.08841504,0.0001259,53.2168,281.1591,85.1228,274.9908,0.00019903,2.881e-05,0.0,0 STARLINK-4274,1 52865U 22062AM  24100.88883266  .00002881  00000-0  19903-3 0  9998,2 52865  53.2168 281.1591 0001259  85.1228 274.9908 15.08841504100436,6917.876,95.437,540.612,538.87,0.0
52865.0,STARLINK-4274,PAYLOAD,2024-04-10 11:38:23,15.08841772,0.0001342,53.2152,278.4828,83.5507,276.5638,0.00013026,1.786e-05,0.0,0 STARLINK-4274,1 52865U 22062AM  24101.48499499  .00001786  00000-0  13026-3 0  9999,2 52865  53.2152 278.4828 0001342  83.5507 276.5638 15.08841772101016,6917.875,95.437,540.668,538.812,0.0
52865.0,STARLINK-4274,PAYLOAD,2024-04-10 17:59:56,15.08842382,0.0001348,53.2152,277.2935,83.4751,276.6395,0.00012286,1.668e-05,0.0,0 STARLINK-4274,1 52865U 22062AM  24101.74995447  .00001668  00000-0  12286-3 0  9998,2 52865  53.2152 277.2935 0001348  83.4751 276.6395 15.08842382100566,6917.873,95.437,540.671,538.806,0.0
52865.0,STARLINK-4274,PAYLOAD,2024-04-11 11:29:10,15.08835765,0.0001294,53.2177,274.0215,96.21,263.9039,0.00022357,3.272e-05,0.0,0 STARLINK-4274,1 52865U 22062AM  24102.47859801  .00003272  00000-0  22357-3 0  9995,2 52865  53.2177 274.0215 0001294  96.2100 263.9039 15.08835765101167,6917.893,95.438,540.654,538.863,0.0
52865.0,STARLINK-4274,PAYLOAD,2024-04-11 17:50:43,15.08836157,0.0001261,53.2185,272.8332,91.3213,268.7924,0.00019118,2.756e-05,0.0,0 STARLINK-4274,1 52865U 22062AM  24102.74355722  .00002756  00000-0  19118-3 0  9995,2 52865  53.2185 272.8332 0001261  91.3213 268.7924 15.08836157100719,6917.892,95.438,540.629,538.885,0.0
52865.0,STARLINK-4274,PAYLOAD,2024-04-12 14:30:43,15.08842677,0.0001216,53.2176,268.9679,89.5743,270.5389,8.1019e-05,1.002e-05,0.0,0 STARLINK-4274,1 52865U 22062AM  24103.60467312  .00001002  00000-0  81019-4 0  9993,2 52865  53.2176 268.9679 0001216  89.5743 270.5389 15.08842677100840,6917.872,95.437,540.578,538.896,0.0
52865.0,STARLINK-4274,PAYLOAD,2024-04-13 14:21:31,15.08837338,0.0001224,53.2172,264.5069,88.4582,271.655,5.4929e-05,5.86e-06,0.0,0 STARLINK-4274,1 52865U 22062AM  24104.59827839  .00000586  00000-0  54929-4 0  9992,2 52865  53.2172 264.5069 0001224  88.4582 271.6550 15.08837338100995,6917.889,95.438,540.6,538.907,0.0
